[{"OBJECT_NAME":"STARLINK-4489","OBJECT_ID":"2022-101R","EPOCH":"2026-03-09T10:20:27.906720","MEAN_MOTION":15.08827472,"ECCENTRICITY":0.00014214,"INCLINATION":53.2174,"RA_OF_ASC_NODE":65.2842,"ARG_OF_PERICENTER":89.8496,"MEAN_ANOMALY":270.2659,"EPHEMERIS_TYPE":0,"CLASSIFICATION_TYPE":"U","NORAD_CAT_ID":53542,"ELEMENT_SET_NO":999,"REV_AT_EPOCH":19695,"BSTAR":-4.7094544e-5,"MEAN_MOTION_DOT":-1.037e-5,"MEAN_MOTION_DDOT":0},{"OBJECT_NAME":"OBJECT G","OBJECT_ID":"2026-027G","EPOCH":"2026-03-09T21:53:37.288032","MEAN_MOTION":15.12145257,"ECCENTRICITY":0.00120269,"INCLINATION":97.4906,"RA_OF_ASC_NODE":197.8999,"ARG_OF_PERICENTER":227.3105,"MEAN_ANOMALY":132.7114,"EPHEMERIS_TYPE":0,"CLASSIFICATION_TYPE":"U","NORAD_CAT_ID":67752,"ELEMENT_SET_NO":999,"REV_AT_EPOCH":389,"BSTAR":0.00053594907,"MEAN_MOTION_DOT":9.195e-5,"MEAN_MOTION_DDOT":0}]
